NORAD_CAT_ID,OBJECT_NAME,OBJECT_TYPE,EPOCH,MEAN_MOTION,ECCENTRICITY,INCLINATION,RA_OF_ASC_NODE,ARG_OF_PERICENTER,MEAN_ANOMALY,BSTAR,MEAN_MOTION_DOT,MEAN_MOTION_DDOT,TLE_LINE0,TLE_LINE1,TLE_LINE2,SEMIMAJOR_AXIS,PERIOD,APOGEE,PERIGEE,DECAYED
53163.0,STARLINK-4104,PAYLOAD,2022-12-13 10:31:22,15.0884335,0.0002654,53.2214,71.4648,35.2351,324.8817,0.00011425,1.531e-05,0.0,0 STARLINK-4104,1 53163U 22083AH  22347.43845042  .00001531  00000-0  11425-3 0  9997,2 53163  53.2214  71.4648 0002654  35.2351 324.8817 15.08843350 22883,6917.87,95.437,541.571,537.899,0.0
53163.0,STARLINK-4104,PAYLOAD,2022-12-13 16:52:54,15.08838663,0.0002464,53.2207,70.2743,31.782,328.3321,4.1643e-05,3.74e-06,0.0,0 STARLINK-4104,1 53163U 22083AH  22347.70341395  .00000374  00000-0  41643-4 0  9999,2 53163  53.2207  70.2743 0002464  31.7820 328.3321 15.08838663 23554,6917.884,95.438,541.4540000000002,538.045,0.0
53163.0,STARLINK-4104,PAYLOAD,2022-12-14 08:46:45,15.08854084,0.0002409,53.2201,67.3018,33.4444,326.67,-0.00016678,-2.943e-05,0.0,0 STARLINK-4104,1 53163U 22083AH  22348.36580773 -.00002943  00000-0 -16678-3 0  9992,2 53163  53.2201  67.3018 0002409  33.4444 326.6700 15.08854084 23658,6917.837,95.437,541.369,538.036,0.0
53163.0,STARLINK-4104,PAYLOAD,2022-12-14 11:57:32,15.08844392,0.0002121,53.2213,66.7056,28.7945,331.3164,-1.3529e-06,-3.1e-06,0.0,0 STARLINK-4104,1 53163U 22083AH  22348.49828795 -.00000310  00000-0 -13529-5 0  9995,2 53163  53.2213  66.7056 0002121  28.7945 331.3164 15.08844392 23041,6917.8669999999975,95.437,541.1990000000002,538.265,0.0
53163.0,STARLINK-4104,PAYLOAD,2022-12-15 05:26:47,15.08836465,0.0002249,53.2199,63.4343,32.6695,327.4436,2.5873e-05,1.23e-06,0.0,0 STARLINK-4104,1 53163U 22083AH  22349.22693288  .00000123  00000-0  25873-4 0  9998,2 53163  53.2199  63.4343 0002249  32.6695 327.4436 15.08836465 23785,6917.891,95.438,541.312,538.2,0.0
53163.0,STARLINK-4104,PAYLOAD,2022-12-15 13:23:42,15.08839625,0.0002171,53.2204,61.9471,29.5972,330.5143,-1.506e-05,-5.28e-06,0.0,0 STARLINK-4104,1 53163U 22083AH  22349.55813247 -.00000528  00000-0 -15060-4 0  9991,2 53163  53.2204  61.9471 0002171  29.5972 330.5143 15.08839625 23202,6917.882,95.438,541.248,538.245,0.0
53163.0,STARLINK-4104,PAYLOAD,2022-12-15 18:09:51,15.08841608,0.0002214,53.2202,61.0552,27.5345,332.5764,0.00010526,1.387e-05,0.0,0 STARLINK-4104,1 53163U 22083AH  22349.75684802  .00001387  00000-0  10526-3 0  9999,2 53163  53.2202  61.0552 0002214  27.5345 332.5764 15.08841608 23239,6917.875,95.437,541.2719999999998,538.2090000000002,0.0
53163.0,STARLINK-4104,PAYLOAD,2022-12-16 05:17:33,15.08845823,0.0002253,53.22,58.9739,28.2662,331.8452,0.00010332,1.357e-05,0.0,0 STARLINK-4104,1 53163U 22083AH  22350.22052523  .00001357  00000-0  10332-3 0  9994,2 53163  53.2200  58.9739 0002253  28.2662 331.8452 15.08845823 23938,6917.863,95.437,541.286,538.169,0.0
53163.0,STARLINK-4104,PAYLOAD,2022-12-16 11:39:07,15.08826699,0.0002283,53.2202,57.7842,28.2827,331.8289,-5.4462e-05,-1.155e-05,0.0,0 STARLINK-4104,1 53163U 22083AH  22350.48550170 -.00001155  00000-0 -54462-4 0  9994,2 53163  53.2202  57.7842 0002283  28.2827 331.8289 15.08826699 23970,6917.920999999999,95.438,541.365,538.207,0.0
53163.0,STARLINK-4104,PAYLOAD,2022-12-16 13:14:30,15.08824682,0.0002293,53.22,57.4869,27.373,332.7382,-7.2525e-05,-1.442e-05,0.0,0 STARLINK-4104,1 53163U 22083AH  22350.55174357 -.00001442  00000-0 -72525-4 0  9990,2 53163  53.2200  57.4869 0002293  27.3730 332.7382 15.08824682 23354,6917.927,95.439,541.378,538.206,0.0
53163.0,STARLINK-4104,PAYLOAD,2022-12-16 14:49:53,15.08824479,0.0002301,53.22,57.1896,27.5627,332.5486,-7.4548e-05,-1.474e-05,0.0,0 STARLINK-4104,1 53163U 22083AH  22350.61798426 -.00001474  00000-0 -74548-4 0  9998,2 53163  53.2200  57.1896 0002301  27.5627 332.5486 15.08824479 23366,6917.928000000001,95.439,541.385,538.201,0.0
53163.0,STARLINK-4104,PAYLOAD,2022-12-17 11:29:53,15.08837764,0.0002477,53.2203,53.3252,36.1204,323.9955,0.00011017,1.465e-05,0.0,0 STARLINK-4104,1 53163U 22083AH  22351.47909621  .00001465  00000-0  11017-3 0  9993,2 53163  53.2203  53.3252 0002477  36.1204 323.9955 15.08837764 24125,6917.887,95.438,541.466,538.039,0.0
53163.0,STARLINK-4104,PAYLOAD,2022-12-17 13:05:17,15.08835026,0.0002339,53.2197,53.0277,31.1189,328.9941,8.7065e-05,1.097e-05,0.0,0 STARLINK-4104,1 53163U 22083AH  22351.54533865  .00001097  00000-0  87065-4 0  9992,2 53163  53.2197  53.0277 0002339  31.1189 328.9941 15.08835026 23505,6917.896,95.438,541.379,538.1419999999998,0.0
53163.0,STARLINK-4104,PAYLOAD,2022-12-18 03:23:46,15.08826482,0.0002417,53.2195,50.3513,33.1556,326.9588,-7.1664e-05,-1.428e-05,0.0,0 STARLINK-4104,1 53163U 22083AH  22352.14151281 -.00001428  00000-0 -71664-4 0  9995,2 53163  53.2195  50.3513 0002417  33.1556 326.9588 15.08826482 24224,6917.922,95.438,541.4590000000002,538.115,0.0
53163.0,STARLINK-4104,PAYLOAD,2022-12-18 12:56:05,15.08834817,0.0002534,53.2185,48.5679,32.8552,327.2597,1.4781e-05,-5.3e-07,0.0,0 STARLINK-4104,1 53163U 22083AH  22352.53894840 -.00000053  00000-0  14781-4 0  9992,2 53163  53.2185  48.5679 0002534  32.8552 327.2597 15.08834817 23658,6917.896,95.438,541.514,538.008,0.0
53163.0,STARLINK-4104,PAYLOAD,2022-12-18 20:53:01,15.08822991,0.0002389,53.2184,47.0811,37.021,323.0947,0.00019781,2.860000000000001e-05,0.0,0 STARLINK-4104,1 53163U 22083AH  22352.87015553  .00002860  00000-0  19781-3 0  9996,2 53163  53.2184  47.0811 0002389  37.0210 323.0947 15.08822991 23704,6917.932,95.439,541.45,538.145,0.0
53163.0,STARLINK-4104,PAYLOAD,2022-12-19 08:00:42,15.08843624,0.0002428,53.2178,44.9992,40.1105,320.0066,0.00010059,1.313e-05,0.0,0 STARLINK-4104,1 53163U 22083AH  22353.33382748  .00001313  00000-0  10059-3 0  9992,2 53163  53.2178  44.9992 0002428  40.1105 320.0066 15.08843624 24408,6917.869000000002,95.437,541.414,538.055,0.0
53163.0,STARLINK-4104,PAYLOAD,2022-12-19 20:43:48,15.08829822,0.0001908,53.2173,42.6204,28.0668,332.0427,0.00011271,1.506e-05,0.0,0 STARLINK-4104,1 53163U 22083AH  22353.86375292  .00001506  00000-0  11271-3 0  9997,2 53163  53.2173  42.6204 0001908  28.0668 332.0427 15.08829822 24481,6917.911,95.438,541.096,538.457,0.0
53163.0,STARLINK-4104,PAYLOAD,2022-12-20 12:37:39,15.0885413,0.0002379,53.2154,39.6455,42.9682,317.1495,0.00047274,7.246e-05,0.0,0 STARLINK-4104,1 53163U 22083AH  22354.52614769  .00007246  00000-0  47274-3 0  9995,2 53163  53.2154  39.6455 0002379  42.9682 317.1495 15.08854130 24588,6917.837,95.437,541.3480000000002,538.056,0.0
53163.0,STARLINK-4104,PAYLOAD,2022-12-21 02:56:07,15.08837083,0.0002244,53.2152,36.9689,47.4147,312.7035,0.0001326,1.823e-05,0.0,0 STARLINK-4104,1 53163U 22083AH  22355.12231449  .00001823  00000-0  13260-3 0  9995,2 53163  53.2152  36.9689 0002244  47.4147 312.7035 15.08837083 24671,6917.889,95.438,541.307,538.202,0.0
53163.0,STARLINK-4104,PAYLOAD,2022-12-21 12:28:26,15.08843309,0.0002217,53.2149,35.1845,47.3564,312.7614,0.00068835,0.00010685,0.0,0 STARLINK-4104,1 53163U 22083AH  22355.51975639  .00010685  00000-0  68835-3 0  9998,2 53163  53.2149  35.1845 0002217  47.3564 312.7614 15.08843309 24103,6917.87,95.437,541.269,538.202,0.0
53163.0,STARLINK-4104,PAYLOAD,2022-12-22 09:08:27,15.08862962,0.0002301,53.2151,31.3189,49.7445,310.3748,0.00085515,0.00013357,0.0,0 STARLINK-4104,1 53163U 22083AH  22356.38086983  .00013357  00000-0  85515-3 0  9992,2 53163  53.2151  31.3189 0002301  49.7445 310.3748 15.08862962 24864,6917.81,95.436,541.2669999999998,538.0830000000002,0.0
53163.0,STARLINK-4104,PAYLOAD,2022-12-22 12:19:13,15.0886432,0.0002297,53.2152,30.7241,49.5785,310.5407,0.00074406,0.00011581,0.0,0 STARLINK-4104,1 53163U 22083AH  22356.51334781  .00011581  00000-0  74406-3 0  9993,2 53163  53.2152  30.7241 0002297  49.5785 310.5407 15.08864320 24253,6917.806,95.436,541.26,538.082,0.0
53163.0,STARLINK-4104,PAYLOAD,2022-12-22 13:54:36,15.08851537,0.0002209,53.215,30.4258,48.3882,311.7299,0.00026849,3.989e-05,0.0,0 STARLINK-4104,1 53163U 22083AH  22356.57958842  .00003989  00000-0  26849-3 0  9990,2 53163  53.2150  30.4258 0002209  48.3882 311.7299 15.08851537 24892,6917.845,95.437,541.238,538.182,0.0
53163.0,STARLINK-4104,PAYLOAD,2022-12-23 02:37:41,15.08849144,0.0002516,53.2149,28.0472,52.6265,307.4956,0.00029797,4.458e-05,0.0,0 STARLINK-4104,1 53163U 22083AH  22357.10951033  .00004458  00000-0  29797-3 0  9992,2 53163  53.2149  28.0472 0002516  52.6265 307.4956 15.08849144 24977,6917.852,95.437,541.4580000000002,537.977,0.0
53163.0,STARLINK-4104,PAYLOAD,2022-12-23 08:59:14,15.0883757,0.0001989,53.2151,26.858,37.8862,322.2270000000001,0.00014721,2.055e-05,0.0,0 STARLINK-4104,1 53163U 22083AH  22357.37447218  .00002055  00000-0  14721-3 0  9998,2 53163  53.2151  26.8580 0001989  37.8862 322.2270 15.08837570 25017,6917.888000000001,95.438,541.129,538.377,0.0
53163.0,STARLINK-4104,PAYLOAD,2022-12-23 18:31:33,15.08842378,0.0002277,53.2154,25.0734,48.0808,312.0378,0.00026824,3.984e-05,0.0,0 STARLINK-4104,1 53163U 22083AH  22357.77191274  .00003984  00000-0  26824-3 0  9999,2 53163  53.2154  25.0734 0002277  48.0808 312.0378 15.08842378 24441,6917.873000000001,95.437,541.313,538.163,0.0
53163.0,STARLINK-4104,PAYLOAD,2022-12-24 08:50:00,15.08853689,0.0002271,53.2159,22.3962,48.9717,311.1471,0.00023527,3.459e-05,0.0,0 STARLINK-4104,1 53163U 22083AH  22358.36806436  .00003459  00000-0  23527-3 0  9992,2 53163  53.2159  22.3962 0002271  48.9717 311.1471 15.08853689 25162,6917.839,95.437,541.275,538.133,0.0
53163.0,STARLINK-4104,PAYLOAD,2022-12-24 18:22:19,15.088498499999998,0.0002079,53.2152,20.6135,45.3075,314.8086,0.00015397,2.164e-05,0.0,0 STARLINK-4104,1 53163U 22083AH  22358.76550453  .00002164  00000-0  15397-3 0  9999,2 53163  53.2152  20.6135 0002079  45.3075 314.8086 15.08849850 25226,6917.85,95.437,541.154,538.2769999999998,0.0
